{
  "type": "FeatureCollection",
  "features": [
    {
      "type": "Feature",
      "properties": {
        "norad_id": 66934,
        "name": "STARLINK-36153",
        "group": "last-30-days",
        "lat": 47.62316890195482,
        "lon": 101.57455288918679,
        "alt_km": 407.57687539284234,
        "timestamp": "2025-12-27T13:34:48.008612+00:00",
        "meta_object_name": "STARLINK-36153",
        "meta_object_id": "2025-286K",
        "meta_epoch": "2025-12-27T06:00:02.000160",
        "meta_mean_motion": 15.51938456,
        "meta_eccentricity": 0.00014406,
        "meta_inclination": 53.1592,
        "meta_ra_of_asc_node": 338.349,
        "meta_arg_of_pericenter": 70.6169,
        "meta_mean_anomaly": 77.2032,
        "meta_ephemeris_type": 0,
        "meta_classification_type": "U",
        "meta_norad_cat_id": 66934,
        "meta_element_set_no": 999,
        "meta_rev_at_epoch": 432,
        "meta_bstar": -0.032843246,
        "meta_mean_motion_dot": -0.01782917,
        "meta_mean_motion_ddot": 0,
        "tle_line1": "1 66934U 25286K   25361.25002315 -.01782917  00000+0 -32843-1 0  9993",
        "tle_line2": "2 66934  53.1592 338.3490 0001440  70.6169  77.2032 15.51938456  4320"
      },
      "geometry": {
        "type": "Point",
        "coordinates": [
          101.57455288918679,
          47.62316890195482
        ]
      }
    },
    {
      "type": "Feature",
      "properties": {
        "norad_id": 66935,
        "name": "STARLINK-36127",
        "group": "last-30-days",
        "lat": 46.72171661887933,
        "lon": 104.05986674612102,
        "alt_km": 407.56708914390947,
        "timestamp": "2025-12-27T13:34:48.008622+00:00",
        "meta_object_name": "STARLINK-36127",
        "meta_object_id": "2025-286L",
        "meta_epoch": "2025-12-27T06:00:02.000160",
        "meta_mean_motion": 15.51934576,
        "meta_eccentricity": 0.00014273,
        "meta_inclination": 53.1595,
        "meta_ra_of_asc_node": 338.344,
        "meta_arg_of_pericenter": 88.5542,
        "meta_mean_anomaly": 61.1829,
        "meta_ephemeris_type": 0,
        "meta_classification_type": "U",
        "meta_norad_cat_id": 66935,
        "meta_element_set_no": 999,
        "meta_rev_at_epoch": 432,
        "meta_bstar": -0.032568472,
        "meta_mean_motion_dot": -0.01769418,
        "meta_mean_motion_ddot": 0,
        "tle_line1": "1 66935U 25286L   25361.25002315 -.01769418  00000+0 -32568-1 0  9999",
        "tle_line2": "2 66935  53.1595 338.3440 0001427  88.5542  61.1829 15.51934576  4322"
      },
      "geometry": {
        "type": "Point",
        "coordinates": [
          104.05986674612102,
          46.72171661887933
        ]
      }
    },
    {
      "type": "Feature",
      "properties": {
        "norad_id": 66936,
        "name": "STARLINK-36160",
        "group": "last-30-days",
        "lat": 45.76714885169704,
        "lon": 106.46446366989704,
        "alt_km": 407.7429105300471,
        "timestamp": "2025-12-27T13:34:48.008636+00:00",
        "meta_object_name": "STARLINK-36160",
        "meta_object_id": "2025-286M",
        "meta_epoch": "2025-12-27T06:00:02.000160",
        "meta_mean_motion": 15.51934533,
        "meta_eccentricity": 0.00014035,
        "meta_inclination": 53.1596,
        "meta_ra_of_asc_node": 338.3408,
        "meta_arg_of_pericenter": 86.6917,
        "meta_mean_anomaly": 64.9597,
        "meta_ephemeris_type": 0,
        "meta_classification_type": "U",
        "meta_norad_cat_id": 66936,
        "meta_element_set_no": 999,
        "meta_rev_at_epoch": 432,
        "meta_bstar": -0.032505066,
        "meta_mean_motion_dot": -0.01766337,
        "meta_mean_motion_ddot": 0,
        "tle_line1": "1 66936U 25286M   25361.25002315 -.01766337  00000+0 -32505-1 0  9998",
        "tle_line2": "2 66936  53.1596 338.3408 0001403  86.6917  64.9597 15.51934533  4323"
      },
      "geometry": {
        "type": "Point",
        "coordinates": [
          106.46446366989704,
          45.76714885169704
        ]
      }
    },
    {
      "type": "Feature",
      "properties": {
        "norad_id": 66937,
        "name": "STARLINK-36165",
        "group": "last-30-days",
        "lat": 44.76254609369124,
        "lon": 108.78745845897788,
        "alt_km": 407.95713394046015,
        "timestamp": "2025-12-27T13:34:48.008648+00:00",
        "meta_object_name": "STARLINK-36165",
        "meta_object_id": "2025-286N",
        "meta_epoch": "2025-12-27T06:00:02.000160",
        "meta_mean_motion": 15.5193443,
        "meta_eccentricity": 0.000134,
        "meta_inclination": 53.1597,
        "meta_ra_of_asc_node": 338.3364,
        "meta_arg_of_pericenter": 84.5148,
        "meta_mean_anomaly": 69.0538,
        "meta_ephemeris_type": 0,
        "meta_classification_type": "U",
        "meta_norad_cat_id": 66937,
        "meta_element_set_no": 999,
        "meta_rev_at_epoch": 432,
        "meta_bstar": -0.032458427,
        "meta_mean_motion_dot": -0.01764041,
        "meta_mean_motion_ddot": 0,
        "tle_line1": "1 66937U 25286N   25361.25002315 -.01764041  00000+0 -32458-1 0  9996",
        "tle_line2": "2 66937  53.1597 338.3364 0001340  84.5148  69.0538 15.51934430  4326"
      },
      "geometry": {
        "type": "Point",
        "coordinates": [
          108.78745845897788,
          44.76254609369124
        ]
      }
    },
    {
      "type": "Feature",
      "properties": {
        "norad_id": 66938,
        "name": "STARLINK-36155",
        "group": "last-30-days",
        "lat": 43.71240167815535,
        "lon": 111.02831546774496,
        "alt_km": 408.1509577648876,
        "timestamp": "2025-12-27T13:34:48.008661+00:00",
        "meta_object_name": "STARLINK-36155",
        "meta_object_id": "2025-286P",
        "meta_epoch": "2025-12-27T06:00:02.000160",
        "meta_mean_motion": 15.51933144,
        "meta_eccentricity": 0.00013615,
        "meta_inclination": 53.1596,
        "meta_ra_of_asc_node": 338.3318,
        "meta_arg_of_pericenter": 81.5959,
        "meta_mean_anomaly": 73.8917,
        "meta_ephemeris_type": 0,
        "meta_classification_type": "U",
        "meta_norad_cat_id": 66938,
        "meta_element_set_no": 999,
        "meta_rev_at_epoch": 432,
        "meta_bstar": -0.032481231,
        "meta_mean_motion_dot": -0.01765083,
        "meta_mean_motion_ddot": 0,
        "tle_line1": "1 66938U 25286P   25361.25002315 -.01765083  00000+0 -32481-1 0  9990",
        "tle_line2": "2 66938  53.1596 338.3318 0001361  81.5959  73.8917 15.51933144  4320"
      },
      "geometry": {
        "type": "Point",
        "coordinates": [
          111.02831546774496,
          43.71240167815535
        ]
      }
    },
    {
      "type": "Feature",
      "properties": {
        "norad_id": 66939,
        "name": "STARLINK-36154",
        "group": "last-30-days",
        "lat": 41.490529823455134,
        "lon": 115.2728359225083,
        "alt_km": 408.45549439465685,
        "timestamp": "2025-12-27T13:34:48.008672+00:00",
        "meta_object_name": "STARLINK-36154",
        "meta_object_id": "2025-286Q",
        "meta_epoch": "2025-12-27T06:00:02.000160",
        "meta_mean_motion": 15.51935992,
        "meta_eccentricity": 0.00014402,
        "meta_inclination": 53.1594,
        "meta_ra_of_asc_node": 338.3239,
        "meta_arg_of_pericenter": 85.8497,
        "meta_mean_anomaly": 73.4696,
        "meta_ephemeris_type": 0,
        "meta_classification_type": "U",
        "meta_norad_cat_id": 66939,
        "meta_element_set_no": 999,
        "meta_rev_at_epoch": 432,
        "meta_bstar": -0.032632871,
        "meta_mean_motion_dot": -0.01772618,
        "meta_mean_motion_ddot": 0,
        "tle_line1": "1 66939U 25286Q   25361.25002315 -.01772618  00000+0 -32633-1 0  9992",
        "tle_line2": "2 66939  53.1594 338.3239 0001440  85.8497  73.4696 15.51935992  4326"
      },
      "geometry": {
        "type": "Point",
        "coordinates": [
          115.2728359225083,
          41.490529823455134
        ]
      }
    },
    {
      "type": "Feature",
      "properties": {
        "norad_id": 66940,
        "name": "STARLINK-36121",
        "group": "last-30-days",
        "lat": 40.32029811462616,
        "lon": 117.28942170641182,
        "alt_km": 408.9043199590924,
        "timestamp": "2025-12-27T13:34:48.008681+00:00",
        "meta_object_name": "STARLINK-36121",
        "meta_object_id": "2025-286R",
        "meta_epoch": "2025-12-27T06:00:02.000160",
        "meta_mean_motion": 15.51937889,
        "meta_eccentricity": 0.00013979,
        "meta_inclination": 53.1591,
        "meta_ra_of_asc_node": 338.32,
        "meta_arg_of_pericenter": 66.3916,
        "meta_mean_anomaly": 94.8459,
        "meta_ephemeris_type": 0,
        "meta_classification_type": "U",
        "meta_norad_cat_id": 66940,
        "meta_element_set_no": 999,
        "meta_rev_at_epoch": 432,
        "meta_bstar": -0.032760898,
        "meta_mean_motion_dot": -0.01778887,
        "meta_mean_motion_ddot": 0,
        "tle_line1": "1 66940U 25286R   25361.25002315 -.01778887  00000+0 -32761-1 0  9990",
        "tle_line2": "2 66940  53.1591 338.3200 0001397  66.3916  94.8459 15.51937889  4325"
      },
      "geometry": {
        "type": "Point",
        "coordinates": [
          117.28942170641182,
          40.32029811462616
        ]
      }
    }
  ]
}